{"type": "FeatureCollection", "features": [ {"type": "Feature", "properties": {"norad_id": 67110, "name": "STARLINK-35781", "group": "last-30-days", "lat": -40.19513302232636, "lon": 147.6006486637714, "alt_km": 290.86126832187347, "timestamp": "2025-12-21T14:40:46.637833+00:00", "meta": {"OBJECT_NAME": "STARLINK-35781", "OBJECT_ID": "2025-299J", "EPOCH": "2025-12-21T06:00:00.999648", "MEAN_MOTION": 15.95688224, "ECCENTRICITY": 0.00023825, "INCLINATION": 42.9993, "RA_OF_ASC_NODE": 264.7998, "ARG_OF_PERICENTER": 273.8533, "MEAN_ANOMALY": 57.9783, "EPHEMERIS_TYPE": 0, "CLASSIFICATION_TYPE": "U", "NORAD_CAT_ID": 67110, "ELEMENT_SET_NO": 999, "REV_AT_EPOCH": 213, "BSTAR": -0.0033626371, "MEAN_MOTION_DOT": -0.01404265, "MEAN_MOTION_DDOT": 0.00058313128}, "tle": {"line1": "1 67110U 25299J   25355.25001157 -.01404265  58313-3 -33626-2 0  9992", "line2": "2 67110  42.9993 264.7998 0002382 273.8533  57.9783 15.95688224  2139"}}, "geometry": {"type": "Point", "coordinates": [147.6006486637714, -40.19513302232636]}}, {"type": "Feature", "properties": {"norad_id": 67111, "name": "STARLINK-35875", "group": "last-30-days", "lat": -39.72200783323161, "lon": 145.62768620142504, "alt_km": 291.2897186645723, "timestamp": "2025-12-21T14:40:46.637843+00:00", "meta": {"OBJECT_NAME": "STARLINK-35875", "OBJECT_ID": "2025-299K", "EPOCH": "2025-12-21T06:00:00.999648", "MEAN_MOTION": 15.95617179, "ECCENTRICITY": 0.00019603, "INCLINATION": 42.9994, "RA_OF_ASC_NODE": 264.8037, "ARG_OF_PERICENTER": 269.1631, "MEAN_ANOMALY": 61.1745, "EPHEMERIS_TYPE": 0, "CLASSIFICATION_TYPE": "U", "NORAD_CAT_ID": 67111, "ELEMENT_SET_NO": 999, "REV_AT_EPOCH": 207, "BSTAR": -0.0034116359, "MEAN_MOTION_DOT": -0.01418922, "MEAN_MOTION_DDOT": 0.00059391486}, "tle": {"line1": "1 67111U 25299K   25355.25001157 -.01418922  59391-3 -34116-2 0  9990", "line2": "2 67111  42.9994 264.8037 0001960 269.1631  61.1745 15.95617179  2073"}}, "geometry": {"type": "Point", "coordinates": [145.62768620142504, -39.72200783323161]}}, {"type": "Feature", "properties": {"norad_id": 67112, "name": "STARLINK-35906", "group": "last-30-days", "lat": -40.55264629232771, "lon": 149.21466979097812, "alt_km": 291.2502016178905, "timestamp": "2025-12-21T14:40:46.637855+00:00", "meta": {"OBJECT_NAME": "STARLINK-35906", "OBJECT_ID": "2025-299L", "EPOCH": "2025-12-21T06:00:00.999648", "MEAN_MOTION": 15.95762276, "ECCENTRICITY": 0.00015165, "INCLINATION": 42.9993, "RA_OF_ASC_NODE": 264.7969, "ARG_OF_PERICENTER": 277.4698, "MEAN_ANOMALY": 55.551, "EPHEMERIS_TYPE": 0, "CLASSIFICATION_TYPE": "U", "NORAD_CAT_ID": 67112, "ELEMENT_SET_NO": 999, "REV_AT_EPOCH": 207, "BSTAR": -0.0033734664, "MEAN_MOTION_DOT": -0.01414103, "MEAN_MOTION_DDOT": 0.00059108831}, "tle": {"line1": "1 67112U 25299L   25355.25001157 -.01414103  59109-3 -33735-2 0  9991", "line2": "2 67112  42.9993 264.7969 0001516 277.4698  55.5510 15.95762276  2074"}}, "geometry": {"type": "Point", "coordinates": [149.21466979097812, -40.55264629232771]}}, {"type": "Feature", "properties": {"norad_id": 67113, "name": "STARLINK-35789", "group": "last-30-days", "lat": -40.91242763731271, "lon": 150.97268848328878, "alt_km": 290.452908141202, "timestamp": "2025-12-21T14:40:46.637867+00:00", "meta": {"OBJECT_NAME": "STARLINK-35789", "OBJECT_ID": "2025-299M", "EPOCH": "2025-12-21T06:00:00.999648", "MEAN_MOTION": 15.95833971, "ECCENTRICITY": 0.00023761, "INCLINATION": 42.9993, "RA_OF_ASC_NODE": 264.7935, "ARG_OF_PERICENTER": 272.7981, "MEAN_ANOMALY": 61.5137, "EPHEMERIS_TYPE": 0, "CLASSIFICATION_TYPE": "U", "NORAD_CAT_ID": 67113, "ELEMENT_SET_NO": 999, "REV_AT_EPOCH": 207, "BSTAR": -0.0033511937, "MEAN_MOTION_DOT": -0.01410553, "MEAN_MOTION_DDOT": 0.00058879851}, "tle": {"line1": "1 67113U 25299M   25355.25001157 -.01410553  58880-3 -33512-2 0  9995", "line2": "2 67113  42.9993 264.7935 0002376 272.7981  61.5137 15.95833971  2079"}}, "geometry": {"type": "Point", "coordinates": [150.97268848328878, -40.91242763731271]}}, {"type": "Feature", "properties": {"norad_id": 67114, "name": "STARLINK-36180", "group": "last-30-days", "lat": -41.31396384317031, "lon": 153.1386288291304, "alt_km": 290.2114103887343, "timestamp": "2025-12-21T14:40:46.637879+00:00", "meta": {"OBJECT_NAME": "STARLINK-36180", "OBJECT_ID": "2025-299N", "EPOCH": "2025-12-21T06:00:00.999648", "MEAN_MOTION": 15.95935301, "ECCENTRICITY": 0.00023607, "INCLINATION": 42.9994, "RA_OF_ASC_NODE": 264.7898, "ARG_OF_PERICENTER": 273.2454, "MEAN_ANOMALY": 62.6264, "EPHEMERIS_TYPE": 0, "CLASSIFICATION_TYPE": "U", "NORAD_CAT_ID": 67114, "ELEMENT_SET_NO": 999, "REV_AT_EPOCH": 218, "BSTAR": -0.0033684049, "MEAN_MOTION_DOT": -0.01425463, "MEAN_MOTION_DDOT": 0.00060088194}, "tle": {"line1": "1 67114U 25299N   25355.25001157 -.01425463  60088-3 -33684-2 0  9995", "line2": "2 67114  42.9994 264.7898 0002360 273.2454  62.6264 15.95935301  2188"}}, "geometry": {"type": "Point", "coordinates": [153.1386288291304, -41.31396384317031]}}, {"type": "Feature", "properties": {"norad_id": 67115, "name": "STARLINK-35892", "group": "last-30-days", "lat": -41.61679441353176, "lon": 154.9613027290273, "alt_km": 289.9776176838377, "timestamp": "2025-12-21T14:40:46.637889+00:00", "meta": {"OBJECT_NAME": "STARLINK-35892", "OBJECT_ID": "2025-299P", "EPOCH": "2025-12-21T06:00:00.999648", "MEAN_MOTION": 15.96011352, "ECCENTRICITY": 0.00023978, "INCLINATION": 42.9994, "RA_OF_ASC_NODE": 264.7864, "ARG_OF_PERICENTER": 273.5515, "MEAN_ANOMALY": 63.6248, "EPHEMERIS_TYPE": 0, "CLASSIFICATION_TYPE": "U", "NORAD_CAT_ID": 67115, "ELEMENT_SET_NO": 999, "REV_AT_EPOCH": 207, "BSTAR": -0.0033560811, "MEAN_MOTION_DOT": -0.01426158, "MEAN_MOTION_DDOT": 0.00060188537}, "tle": {"line1": "1 67115U 25299P   25355.25001157 -.01426158  60189-3 -33561-2 0  9994", "line2": "2 67115  42.9994 264.7864 0002397 273.5515  63.6248 15.96011352  2076"}}, "geometry": {"type": "Point", "coordinates": [154.9613027290273, -41.61679441353176]}}, {"type": "Feature", "properties": {"norad_id": 67116, "name": "STARLINK-35738", "group": "last-30-days", "lat": -41.9503522540036, "lon": 157.23405804275842, "alt_km": 289.70952899358144, "timestamp": "2025-12-21T14:40:46.637899+00:00", "meta": {"OBJECT_NAME": "STARLINK-35738", "OBJECT_ID": "2025-299Q", "EPOCH": "2025-12-21T06:00:00.999648", "MEAN_MOTION": 15.9611178, "ECCENTRICITY": 0.00024035, "INCLINATION": 42.9994, "RA_OF_ASC_NODE": 264.7824, "ARG_OF_PERICENTER": 274.0224, "MEAN_ANOMALY": 64.759, "EPHEMERIS_TYPE": 0, "CLASSIFICATION_TYPE": "U", "NORAD_CAT_ID": 67116, "ELEMENT_SET_NO": 999, "REV_AT_EPOCH": 207, "BSTAR": -0.0033568195, "MEAN_MOTION_DOT": -0.01434222, "MEAN_MOTION_DDOT": 0.00060876644}, "tle": {"line1": "1 67116U 25299Q   25355.25001157 -.01434222  60877-3 -33568-2 0  9997", "line2": "2 67116  42.9994 264.7824 0002403 274.0224  64.7590 15.96111780  2072"}}, "geometry": {"type": "Point", "coordinates": [157.23405804275842, -41.9503522540036]}}, {"type": "Feature", "properties": {"norad_id": 67117, "name": "STARLINK-35674", "group": "last-30-days", "lat": -42.205606626876275, "lon": 159.24561477465286, "alt_km": 289.50190991207455, "timestamp": "2025-12-21T14:40:46.637909+00:00", "meta": {"OBJECT_NAME": "STARLINK-35674", "OBJECT_ID": "2025-299R", "EPOCH": "2025-12-21T06:00:00.999648", "MEAN_MOTION": 15.96196716, "ECCENTRICITY": 0.00023725, "INCLINATION": 42.9995, "RA_OF_ASC_NODE": 264.7788, "ARG_OF_PERICENTER": 273.8368, "MEAN_ANOMALY": 66.3564, "EPHEMERIS_TYPE": 0, "CLASSIFICATION_TYPE": "U", "NORAD_CAT_ID": 67117, "ELEMENT_SET_NO": 999, "REV_AT_EPOCH": 197, "BSTAR": -0.0033602877, "MEAN_MOTION_DOT": -0.01442277, "MEAN_MOTION_DDOT": 0.00061558868}, "tle": {"line1": "1 67117U 25299R   25355.25001157 -.01442277  61559-3 -33603-2 0  9995", "line2": "2 67117  42.9995 264.7788 0002372 273.8368  66.3564 15.96196716  1973"}}, "geometry": {"type": "Point", "coordinates": [159.24561477465286, -42.205606626876275]}}, {"type": "Feature", "properties": {"norad_id": 67118, "name": "STARLINK-35701", "group": "last-30-days", "lat": -42.43115937495546, "lon": 161.3326272983688, "alt_km": 289.26339025955895, "timestamp": "2025-12-21T14:40:46.637919+00:00", "meta": {"OBJECT_NAME": "STARLINK-35701", "OBJECT_ID": "2025-299S", "EPOCH": "2025-12-21T06:00:00.999648", "MEAN_MOTION": 15.96289293, "ECCENTRICITY": 0.00023988, "INCLINATION": 42.9995, "RA_OF_ASC_NODE": 264.7752, "ARG_OF_PERICENTER": 275.3032, "MEAN_ANOMALY": 66.341, "EPHEMERIS_TYPE": 0, "CLASSIFICATION_TYPE": "U", "NORAD_CAT_ID": 67118, "ELEMENT_SET_NO": 999, "REV_AT_EPOCH": 213, "BSTAR": -0.0033782139, "MEAN_MOTION_DOT": -0.01457163, "MEAN_MOTION_DDOT": 0.00062789505}, "tle": {"line1": "1 67118U 25299S   25355.25001157 -.01457163  62790-3 -33782-2 0  9992", "line2": "2 67118  42.9995 264.7752 0002398 275.3032  66.3410 15.96289293  2130"}}, "geometry": {"type": "Point", "coordinates": [161.3326272983688, -42.43115937495546]}}, {"type": "Feature", "properties": {"norad_id": 67119, "name": "STARLINK-36179", "group": "last-30-days", "lat": -42.69204077596395, "lon": 164.41069045132437, "alt_km": 288.74048897085504, "timestamp": "2025-12-21T14:40:46.637928+00:00", "meta": {"OBJECT_NAME": "STARLINK-36179", "OBJECT_ID": "2025-299T", "EPOCH": "2025-12-21T06:00:00.999648", "MEAN_MOTION": 15.964022, "ECCENTRICITY": 0.00025657, "INCLINATION": 42.9994, "RA_OF_ASC_NODE": 264.7696, "ARG_OF_PERICENTER": 273.7742, "MEAN_ANOMALY": 69.9923, "EPHEMERIS_TYPE": 0, "CLASSIFICATION_TYPE": "U", "NORAD_CAT_ID": 67119, "ELEMENT_SET_NO": 999, "REV_AT_EPOCH": 218, "BSTAR": -0.0032628375, "MEAN_MOTION_DOT": -0.01416687, "MEAN_MOTION_DDOT": 0.00059695039}, "tle": {"line1": "1 67119U 25299T   25355.25001157 -.01416687  59695-3 -32628-2 0  9997", "line2": "2 67119  42.9994 264.7696 0002565 273.7742  69.9923 15.96402200  2181"}}, "geometry": {"type": "Point", "coordinates": [164.41069045132437, -42.69204077596395]}}]}